[Satellite]
VERSION=1.1
NAME=RBSP A
NICKNAME=RBSP A
TLE1=1 38752U 12046A   18020.31548293 -.00000047  00000-0 -13821-3 0  9995
TLE2=2 38752   9.9700  89.7958 6816724 333.5479   3.8791  2.68115441 52700
